HAWK-11A                
1 62382U 24247F   26068.51231358  .00009457  00000+0  34106-3 0  9991
2 62382  44.9941 114.3328 0005466 327.3713  32.6832 15.28849427 67741
STARLINK-34854          
1 65337U 25189Q   26068.65690868  .00030196  00000+0  10272-2 0  9991
2 65337  53.1582 206.7591 0001229  92.5483 267.5658 15.30209757 31041
